GPS BIIA-23 (PRN 18)    
1 22877U 93068A   18273.35971924  .00000012  00000-0  00000+0 0  9995
2 22877  54.5004  79.1889 0147569  77.2393 303.4787  2.00568891182654
GPS BIIR-2  (PRN 13)    
1 24876U 97035A   18273.22658661  .00000025  00000-0  00000+0 0  9994
2 24876  55.4785 208.6486 0032062  82.7040 277.6678  2.00564110155251
GPS BIIR-3  (PRN 11)    
1 25933U 99055A   18273.32268698 -.00000023  00000-0  00000+0 0  9990
2 25933  51.9614  57.1136 0167558 104.5239 251.9897  2.00564674139074
GPS BIIR-4  (PRN 20)    
1 26360U 00025A   18273.02541495  .00000023  00000-0  00000+0 0  9999
2 26360  53.2319 135.2927 0041330 122.8009  65.4568  2.00563022134769
GPS BIIR-5  (PRN 28)    
1 26407U 00040A   18273.28799381 -.00000037  00000-0  00000+0 0  9991
2 26407  56.4213 326.7841 0198397 273.4119  81.8152  2.00562155133443
GPS BIIR-6  (PRN 14)    
1 26605U 00071A   18273.08432458  .00000024  00000-0  00000+0 0  9997
2 26605  55.0518 206.2046 0102618 249.1403 226.9042  2.00568226131030
GPS BIIR-8  (PRN 16)    
1 27663U 03005A   18273.12878954 -.00000037  00000-0  00000+0 0  9997
2 27663  56.4845 326.5528 0098895  28.6359 331.7156  2.00560486114802
GPS BIIR-9  (PRN 21)    
1 27704U 03010A   18273.02796853  .00000010  00000-0  00000+0 0  9995
2 27704  54.1721  78.7553 0245664 272.5699 335.8738  2.00569686113592
GPS BIIR-10 (PRN 22)    
1 28129U 03058A   18271.92703215  .00000027  00000-0  00000+0 0  9994
2 28129  53.0443 138.1736 0072717 275.1497  84.1176  2.00559676108276
GPS BIIR-11 (PRN 19)    
1 28190U 04009A   18273.45439293 -.00000054  00000-0  00000+0 0  9992
2 28190  56.2085  27.3594 0094086  73.6848 308.2145  2.00572187106485
GPS BIIR-12 (PRN 23)    
1 28361U 04023A   18271.79975185  .00000024  00000-0  00000+0 0  9994
2 28361  54.0558 200.8911 0128098 227.4381 315.3949  2.00557156104533
GPS BIIR-13 (PRN 02)    
1 28474U 04045A   18273.60555795  .00000012  00000-0  00000+0 0  9993
2 28474  54.5380  78.3860 0184168 255.3867 151.4756  2.00576123101937
GPS BIIRM-1 (PRN 17)    
1 28874U 05038A   18273.37175358 -.00000057  00000-0  00000+0 0  9997
2 28874  56.3447  24.6853 0128863 258.6040  90.0539  2.00570199 95330
GPS BIIRM-2 (PRN 31)    
1 29486U 06042A   18272.13030300  .00000036  00000-0  00000+0 0  9999
2 29486  55.1273 263.5018 0089530 352.4521 100.4286  2.00554675 88029
GPS BIIRM-3 (PRN 12)    
1 29601U 06052A   18271.44379427 -.00000034  00000-0  00000+0 0  9997
2 29601  56.4623 325.5353 0068155  57.7804 302.9495  2.00553151 86927
GPS BIIRM-4 (PRN 15)    
1 32260U 07047A   18271.26989008  .00000022  00000-0  00000+0 0  9995
2 32260  53.1796 196.8419 0106364  39.6447 321.1480  2.00575262 80306
GPS BIIRM-5 (PRN 29)    
1 32384U 07062A   18273.07278414 -.00000055  00000-0  00000+0 0  9999
2 32384  56.4215  25.3146 0005296  95.1998 264.9241  2.00569695 79072
GPS BIIRM-6 (PRN 07)    
1 32711U 08012A   18273.16919830  .00000041  00000-0  00000+0 0  9997
2 32711  54.8623 262.7130 0122393 218.2308 140.8933  2.00567376 77254
GPS BIIRM-8 (PRN 05)    
1 35752U 09043A   18273.58798590  .00000020  00000-0  00000+0 0  9991
2 35752  54.3437 140.4352 0055082  37.7932 289.7520  2.00549608 66841
GPS BIIF-1  (PRN 25)    
1 36585U 10022A   18273.47757681 -.00000031  00000-0  00000+0 0  9992
2 36585  55.7485 321.9417 0072893  48.1291 308.6044  2.00574007 61090
GPS BIIF-2  (PRN 01)    
1 37753U 11036A   18273.37690463  .00000019  00000-0  00000+0 0  9994
2 37753  55.7358  82.0476 0079847  38.6359 329.6494  2.00564749 52771
GPS BIIF-3  (PRN 24)    
1 38833U 12053A   18272.35182113  .00000036  00000-0  00000+0 0  9998
2 38833  53.8943 259.2014 0072121  29.0726 331.3192  2.00568632 43822
GPS BIIF-4  (PRN 27)    
1 39166U 13023A   18273.21091893 -.00000060  00000-0  00000+0 0  9994
2 39166  56.0375  21.5536 0059509  23.8330 336.4619  2.00561413 39378
GPS BIIF-5  (PRN 30)    
1 39533U 14008A   18273.21053443  .00000038  00000-0  00000+0 0  9999
2 39533  54.0344 264.5299 0036664 193.1518 166.7527  2.00562081 33739
GPS BIIF-6  (PRN 06)    
1 39741U 14026A   18272.98961346  .00000017  00000-0  00000+0 0  9990
2 39741  55.7182  81.5867 0011885 289.7931  70.1084  2.00559480 32010
GPS BIIF-7  (PRN 09)    
1 40105U 14045A   18272.57617954  .00000023  00000-0  00000+0 0  9992
2 40105  54.5820 201.0204 0008477 101.4962 258.6171  2.00579200 30451
GPS BIIF-8  (PRN 03)    
1 40294U 14068A   18270.96077306  .00000036  00000-0  00000+0 0  9992
2 40294  55.0944 141.8891 0016351  30.7385 329.4589  2.00563764 28645
GPS BIIF-9  (PRN 26)    
1 40534U 15013A   18272.59142965 -.00000031  00000-0  00000+0 0  9991
2 40534  54.6863 320.5901 0029589 358.4354   1.6200  2.00557400 25745
GPS BIIF-10  (PRN 08)   
1 40730U 15033A   18272.25153474 -.00000060  00000-0  00000+0 0  9993
2 40730  55.5661  21.0501 0036670 333.1008  26.7309  2.00568750 23491
GPS BIIF-11  (PRN 10)   
1 41019U 15062A   18271.80556690  .00000031  00000-0  00000+0 0  9990
2 41019  55.0986 141.6618 0039004 202.2498 157.6783  2.00564484 21306
GPS BIIF-12  (PRN 32)   
1 41328U 16007A   18272.89164037  .00000022  00000-0  00000+0 0  9993
2 41328  54.8305 201.3270 0024386 217.9640 141.8823  2.00559079 19387
